ONEWEB-0558             
1 56059U 23043P   25245.11502011 -.00000088  00000+0 -24556-3 0  9998
2 56059  87.9230 301.4731 0001496  96.4032 263.7273 13.21827348120180
ONEWEB-0559             
1 56060U 23043Q   25244.72552259  .00000107  00000+0  22725-3 0  9991
2 56060  87.9229 301.5430 0001705  86.4074 273.7255 13.21825140120140
ONEWEB-0566             
1 56061U 23043R   25245.09769300  .00000106  00000+0  22492-3 0  9990
2 56061  87.9229 301.4669 0001651  92.3375 267.7948 13.21826450120174
ONEWEB-0568             
1 56062U 23043S   25245.05846281  .00000001  00000+0 -31517-4 0  9995
2 56062  87.9004 286.1965 0002140 100.8612 259.2760 13.16594212121066
ONEWEB-0574             
1 56063U 23043T   25244.71291046  .00000002  00000+0 -26185-4 0  9997
2 56063  87.9230 301.5318 0002130  93.3290 266.8088 13.21824701120161
ONEWEB-0575             
1 56064U 23043U   25244.67214048 -.00000128  00000+0 -36771-3 0  9991
2 56064  87.9000 286.2784 0002396  93.5395 266.6010 13.16594134121000
ONEWEB-0576             
1 56065U 23043V   25245.10912280  .00000137  00000+0  32424-3 0  9993
2 56065  87.9007 286.1850 0002086  97.4099 262.7269 13.16593756121058
ONEWEB-0577             
1 56066U 23043W   25245.11545264  .00000160  00000+0  38608-3 0  9995
2 56066  87.9009 286.1850 0002594  90.2740 269.8688 13.16593845121084
